[{"OBJECT_NAME":"NETSAT-1","OBJECT_ID":"2020-068W","EPOCH":"2026-03-09T22:42:38.711232","MEAN_MOTION":15.32042482,"ECCENTRICITY":0.00057337,"INCLINATION":97.8751,"RA_OF_ASC_NODE":63.2583,"ARG_OF_PERICENTER":18.5877,"MEAN_ANOMALY":341.5572,"EPHEMERIS_TYPE":0,"CLASSIFICATION_TYPE":"U","NORAD_CAT_ID":46506,"ELEMENT_SET_NO":999,"REV_AT_EPOCH":30009,"BSTAR":0.00059222329,"MEAN_MOTION_DOT":0.00018269,"MEAN_MOTION_DDOT":0},{"OBJECT_NAME":"STARLINK-35241","OBJECT_ID":"2025-198Z","EPOCH":"2026-03-09T20:33:44.751744","MEAN_MOTION":15.30159665,"ECCENTRICITY":0.00011922,"INCLINATION":53.1556,"RA_OF_ASC_NODE":270.3628,"ARG_OF_PERICENTER":109.4815,"MEAN_ANOMALY":250.6314,"EPHEMERIS_TYPE":0,"CLASSIFICATION_TYPE":"U","NORAD_CAT_ID":65515,"ELEMENT_SET_NO":999,"REV_AT_EPOCH":2864,"BSTAR":0.00081708406,"MEAN_MOTION_DOT":0.00023888,"MEAN_MOTION_DDOT":0}]
